[{"OBJECT_NAME":"STARLINK-31203","OBJECT_ID":"2024-019S","EPOCH":"2026-03-09T13:20:33.833760","MEAN_MOTION":15.27575211,"ECCENTRICITY":0.00014601,"INCLINATION":43.0003,"RA_OF_ASC_NODE":246.0511,"ARG_OF_PERICENTER":234.9136,"MEAN_ANOMALY":125.1579,"EPHEMERIS_TYPE":0,"CLASSIFICATION_TYPE":"U","NORAD_CAT_ID":58869,"ELEMENT_SET_NO":999,"REV_AT_EPOCH":11910,"BSTAR":2.3978092e-5,"MEAN_MOTION_DOT":3.98e-6,"MEAN_MOTION_DDOT":0},{"OBJECT_NAME":"OBJECT M","OBJECT_ID":"2024-205M","EPOCH":"2026-03-09T22:23:47.520096","MEAN_MOTION":15.27663844,"ECCENTRICITY":0.00036602,"INCLINATION":97.3915,"RA_OF_ASC_NODE":144.193,"ARG_OF_PERICENTER":310.2554,"MEAN_ANOMALY":49.8364,"EPHEMERIS_TYPE":0,"CLASSIFICATION_TYPE":"U","NORAD_CAT_ID":61905,"ELEMENT_SET_NO":999,"REV_AT_EPOCH":7334,"BSTAR":0.00036391974,"MEAN_MOTION_DOT":9.771e-5,"MEAN_MOTION_DDOT":0}]
